{
  "type": "FeatureCollection",
  "features": [
    {
      "type": "Feature",
      "properties": {
        "norad_id": 41330,
        "name": "COSMOS 2514 (751)",
        "group": "gnss",
        "lat": 63.28341982320739,
        "lon": 71.88024198842717,
        "alt_km": 19137.811035948427,
        "timestamp": "2025-12-25T07:41:09.966392+00:00",
        "meta_object_name": "COSMOS 2514 (751)",
        "meta_object_id": "2016-008A",
        "meta_epoch": "2025-12-24T06:01:31.134720",
        "meta_mean_motion": 2.13102586,
        "meta_eccentricity": 0.00116213,
        "meta_inclination": 65.1271,
        "meta_ra_of_asc_node": 319.0099,
        "meta_arg_of_pericenter": 220.0868,
        "meta_mean_anomaly": 139.8285,
        "meta_ephemeris_type": 0,
        "meta_classification_type": "U",
        "meta_norad_cat_id": 41330,
        "meta_element_set_no": 999,
        "meta_rev_at_epoch": 7689,
        "meta_bstar": 0,
        "meta_mean_motion_dot": -3.3e-07,
        "meta_mean_motion_ddot": 0,
        "tle_line1": "1 41330U 16008A   25358.25105480 -.00000033  00000+0  00000+0 0  9999",
        "tle_line2": "2 41330  65.1271 319.0099 0011621 220.0868 139.8285  2.13102586 76897"
      },
      "geometry": {
        "type": "Point",
        "coordinates": [
          71.88024198842717,
          63.28341982320739
        ]
      }
    },
    {
      "type": "Feature",
      "properties": {
        "norad_id": 41384,
        "name": "IRNSS-1F",
        "group": "gnss",
        "lat": 3.092245593769037,
        "lon": -118.1581071672984,
        "alt_km": 35711.75653953688,
        "timestamp": "2025-12-25T07:41:09.966403+00:00",
        "meta_object_name": "IRNSS-1F",
        "meta_object_id": "2016-015A",
        "meta_epoch": "2025-12-24T21:48:50.995584",
        "meta_mean_motion": 1.00278499,
        "meta_eccentricity": 0.0022662,
        "meta_inclination": 4.9116,
        "meta_ra_of_asc_node": 100.9971,
        "meta_arg_of_pericenter": 182.2577,
        "meta_mean_anomaly": 170.1613,
        "meta_ephemeris_type": 0,
        "meta_classification_type": "U",
        "meta_norad_cat_id": 41384,
        "meta_element_set_no": 999,
        "meta_rev_at_epoch": 3591,
        "meta_bstar": 0,
        "meta_mean_motion_dot": 1.78e-06,
        "meta_mean_motion_ddot": 0,
        "tle_line1": "1 41384U 16015A   25358.90892356  .00000178  00000+0  00000+0 0  9992",
        "tle_line2": "2 41384   4.9116 100.9971 0022662 182.2577 170.1613  1.00278499 35917"
      },
      "geometry": {
        "type": "Point",
        "coordinates": [
          -118.1581071672984,
          3.092245593769037
        ]
      }
    },
    {
      "type": "Feature",
      "properties": {
        "norad_id": 41434,
        "name": "BEIDOU-2 IGSO-6 (C13)",
        "group": "gnss",
        "lat": -59.35802483923388,
        "lon": -62.87968135829758,
        "alt_km": 35571.26381307357,
        "timestamp": "2025-12-25T07:41:09.966415+00:00",
        "meta_object_name": "BEIDOU-2 IGSO-6 (C13)",
        "meta_object_id": "2016-021A",
        "meta_epoch": "2025-12-24T14:08:03.685920",
        "meta_mean_motion": 1.00290884,
        "meta_eccentricity": 0.00608322,
        "meta_inclination": 59.9811,
        "meta_ra_of_asc_node": 39.7798,
        "meta_arg_of_pericenter": 230.476,
        "meta_mean_anomaly": 128.7548,
        "meta_ephemeris_type": 0,
        "meta_classification_type": "U",
        "meta_norad_cat_id": 41434,
        "meta_element_set_no": 999,
        "meta_rev_at_epoch": 3572,
        "meta_bstar": 0,
        "meta_mean_motion_dot": -1.33e-06,
        "meta_mean_motion_ddot": 0,
        "tle_line1": "1 41434U 16021A   25358.58893155 -.00000133  00000+0  00000+0 0  9999",
        "tle_line2": "2 41434  59.9811  39.7798 0060832 230.4760 128.7548  1.00290884 35729"
      },
      "geometry": {
        "type": "Point",
        "coordinates": [
          -62.87968135829758,
          -59.35802483923388
        ]
      }
    },
    {
      "type": "Feature",
      "properties": {
        "norad_id": 41469,
        "name": "IRNSS-1G",
        "group": "gnss",
        "lat": -4.015893935237605,
        "lon": -21.183925416931775,
        "alt_km": 35786.06025818768,
        "timestamp": "2025-12-25T07:41:09.966427+00:00",
        "meta_object_name": "IRNSS-1G",
        "meta_object_id": "2016-027A",
        "meta_epoch": "2025-12-24T19:59:21.646752",
        "meta_mean_motion": 1.00274057,
        "meta_eccentricity": 0.00026831,
        "meta_inclination": 4.7642,
        "meta_ra_of_asc_node": 101.7886,
        "meta_arg_of_pericenter": 327.0032,
        "meta_mean_anomaly": 94.21,
        "meta_ephemeris_type": 0,
        "meta_classification_type": "U",
        "meta_norad_cat_id": 41469,
        "meta_element_set_no": 999,
        "meta_rev_at_epoch": 3543,
        "meta_bstar": 0,
        "meta_mean_motion_dot": -3.14e-06,
        "meta_mean_motion_ddot": 0,
        "tle_line1": "1 41469U 16027A   25358.83288943 -.00000314  00000+0  00000+0 0  9995",
        "tle_line2": "2 41469   4.7642 101.7886 0002683 327.0032  94.2100  1.00274057 35433"
      },
      "geometry": {
        "type": "Point",
        "coordinates": [
          -21.183925416931775,
          -4.015893935237605
        ]
      }
    },
    {
      "type": "Feature",
      "properties": {
        "norad_id": 41549,
        "name": "GSAT0211 (GALILEO 14)",
        "group": "gnss",
        "lat": 54.96549999233253,
        "lon": -37.02843749913708,
        "alt_km": 23213.323977890686,
        "timestamp": "2025-12-25T07:41:09.966438+00:00",
        "meta_object_name": "GSAT0211 (GALILEO 14)",
        "meta_object_id": "2016-030A",
        "meta_epoch": "2025-12-23T23:52:07.352256",
        "meta_mean_motion": 1.70473256,
        "meta_eccentricity": 0.0004011,
        "meta_inclination": 55.1486,
        "meta_ra_of_asc_node": 226.5135,
        "meta_arg_of_pericenter": 16.1635,
        "meta_mean_anomaly": 343.9466,
        "meta_ephemeris_type": 0,
        "meta_classification_type": "U",
        "meta_norad_cat_id": 41549,
        "meta_element_set_no": 999,
        "meta_rev_at_epoch": 5968,
        "meta_bstar": 0,
        "meta_mean_motion_dot": 7.2e-07,
        "meta_mean_motion_ddot": 0,
        "tle_line1": "1 41549U 16030A   25357.99452954  .00000072  00000+0  00000+0 0  9999",
        "tle_line2": "2 41549  55.1486 226.5135 0004011  16.1635 343.9466  1.70473256 59684"
      },
      "geometry": {
        "type": "Point",
        "coordinates": [
          -37.02843749913708,
          54.96549999233253
        ]
      }
    },
    {
      "type": "Feature",
      "properties": {
        "norad_id": 41550,
        "name": "GSAT0210 (GALILEO 13)",
        "group": "gnss",
        "lat": -47.688486096994275,
        "lon": 176.5571179322357,
        "alt_km": 23228.718095071825,
        "timestamp": "2025-12-25T07:41:09.966449+00:00",
        "meta_object_name": "GSAT0210 (GALILEO 13)",
        "meta_object_id": "2016-030B",
        "meta_epoch": "2025-12-24T06:02:46.975776",
        "meta_mean_motion": 1.70473503,
        "meta_eccentricity": 5.868e-05,
        "meta_inclination": 55.148,
        "meta_ra_of_asc_node": 226.5045,
        "meta_arg_of_pericenter": 166.7017,
        "meta_mean_anomaly": 193.3957,
        "meta_ephemeris_type": 0,
        "meta_classification_type": "U",
        "meta_norad_cat_id": 41550,
        "meta_element_set_no": 999,
        "meta_rev_at_epoch": 5968,
        "meta_bstar": 0,
        "meta_mean_motion_dot": 7.1e-07,
        "meta_mean_motion_ddot": 0,
        "tle_line1": "1 41550U 16030B   25358.25193259  .00000071  00000+0  00000+0 0  9990",
        "tle_line2": "2 41550  55.1480 226.5045 0000586 166.7017 193.3957  1.70473503 59686"
      },
      "geometry": {
        "type": "Point",
        "coordinates": [
          176.5571179322357,
          -47.688486096994275
        ]
      }
    },
    {
      "type": "Feature",
      "properties": {
        "norad_id": 41586,
        "name": "BEIDOU-2 G7 (C03)",
        "group": "gnss",
        "lat": -1.713481160377312,
        "lon": -40.26976112860951,
        "alt_km": 35794.44941465575,
        "timestamp": "2025-12-25T07:41:09.966463+00:00",
        "meta_object_name": "BEIDOU-2 G7 (C03)",
        "meta_object_id": "2016-037A",
        "meta_epoch": "2025-12-24T22:11:03.869376",
        "meta_mean_motion": 1.00268877,
        "meta_eccentricity": 0.00051981,
        "meta_inclination": 1.7847,
        "meta_ra_of_asc_node": 67.8922,
        "meta_arg_of_pericenter": 0.9733,
        "meta_mean_anomaly": 108.023,
        "meta_ephemeris_type": 0,
        "meta_classification_type": "U",
        "meta_norad_cat_id": 41586,
        "meta_element_set_no": 999,
        "meta_rev_at_epoch": 514,
        "meta_bstar": 0,
        "meta_mean_motion_dot": -3.32e-06,
        "meta_mean_motion_ddot": 0,
        "tle_line1": "1 41586U 16037A   25358.92435034 -.00000332  00000+0  00000+0 0  9991",
        "tle_line2": "2 41586   1.7847  67.8922 0005198   0.9733 108.0230  1.00268877  5145"
      },
      "geometry": {
        "type": "Point",
        "coordinates": [
          -40.26976112860951,
          -1.713481160377312
        ]
      }
    }
  ]
}